[
    {
        "Altitude(m)": 607886.665512277,
        "Argument of Periapsis(deg)": 0.0,
        "Eccentricity": 0.0,
        "Inclination(deg)": 60.0,
        "Latitude(deg)": 40.99837340215772,
        "Longitude(deg)": -70.02707507707639,
        "Mean Anomaly(deg)": 49.09089999999999,
        "RAAN(deg)": 0.0,
        "Satellite Name": "Test1 3",
        "Satellite Number": 3,
        "Semi-Major Axis(m)": 6980739.136638005,
        "Time(s)": 0
    },
    {
        "Altitude(m)": 607987.579704598,
        "Argument of Periapsis(deg)": 0.00010418945913296404,
        "Eccentricity": 0.0,
        "Inclination(deg)": 60.0,
        "Latitude(deg)": 41.46346404482436,
        "Longitude(deg)": -69.52284864762734,
        "Mean Anomaly(deg)": 49.71100614546182,
        "RAAN(deg)": -0.0004200491397426661,
        "Satellite Name": "Test1 3",
        "Satellite Number": 3,
        "Semi-Major Axis(m)": 6980739.136638005,
        "Time(s)": 10
    }
]